start=new Date('2022-03-22T00:00:00.000Z').valueOf();
sats=[{"CENTER_NAME":"EARTH","ARG_OF_PERICENTER":"52.4620","TLE_LINE1":"1 46368U 20062AV  22080.78708435  .00000787  00000-0  71749-4 0  9995","APOAPSIS":"548.456","PERIAPSIS":"545.924","EPOCH":"2022-03-21T18:53:24.087840","COUNTRY_CODE":"US","RCS_SIZE":"LARGE","SEMIMAJOR_AXIS":"6925.325","RA_OF_ASC_NODE":"20.9977","MEAN_MOTION":"15.06407641","MEAN_ELEMENT_THEORY":"SGP4","REF_FRAME":"TEME","ELEMENT_SET_NO":"999","REV_AT_EPOCH":"8621","INCLINATION":"53.0556","PERIOD":"95.592","GP_ID":"199348782","MEAN_MOTION_DDOT":"0.0000000000000","MEAN_ANOMALY":"307.6534","OBJECT_ID":"2020-062AV","LAUNCH_DATE":"2020-09-03","SITE":"AFETR","EPHEMERIS_TYPE":"0","FILE":"3368836","ECCENTRICITY":"0.00018280","NORAD_CAT_ID":"46368","TIME_SYSTEM":"UTC","MEAN_MOTION_DOT":"0.00000787","TLE_LINE2":"2 46368  53.0556  20.9977 0001828  52.4620 307.6534 15.06407641 86214","OBJECT_NAME":"STARLINK-1658","CLASSIFICATION_TYPE":"U","OBJECT_TYPE":"PAYLOAD","BSTAR":"0.00007174900000","DECAY_DATE":null},{"TLE_LINE1":"1 46370U 20062AX  22080.88292684  .00000597  00000-0  58979-4 0  9992","PERIAPSIS":"546.046","APOAPSIS":"548.432","ARG_OF_PERICENTER":"53.7392","CENTER_NAME":"EARTH","INCLINATION":"53.0549","REF_FRAME":"TEME","MEAN_ELEMENT_THEORY":"SGP4","ELEMENT_SET_NO":"999","REV_AT_EPOCH":"8622","MEAN_MOTION":"15.06391698","RA_OF_ASC_NODE":"20.5808","EPOCH":"2022-03-21T21:11:24.878976","SEMIMAJOR_AXIS":"6925.374","RCS_SIZE":"LARGE","COUNTRY_CODE":"US","FILE":"3368836","OBJECT_ID":"2020-062AX","LAUNCH_DATE":"2020-09-03","EPHEMERIS_TYPE":"0","SITE":"AFETR","GP_ID":"199347032","PERIOD":"95.593","MEAN_ANOMALY":"306.3756","MEAN_MOTION_DDOT":"0.0000000000000","CLASSIFICATION_TYPE":"U","DECAY_DATE":null,"BSTAR":"0.00005897900000","OBJECT_TYPE":"PAYLOAD","OBJECT_NAME":"STARLINK-1670","TLE_LINE2":"2 46370  53.0549  20.5808 0001723  53.7392 306.3756 15.06391698 86229","NORAD_CAT_ID":"46370","ECCENTRICITY":"0.00017230","MEAN_MOTION_DOT":"0.00000597","TIME_SYSTEM":"UTC"},{"MEAN_ANOMALY":"305.1928","MEAN_MOTION_DDOT":"0.0000000000000","GP_ID":"199347282","PERIOD":"95.592","EPHEMERIS_TYPE":"0","SITE":"AFETR","OBJECT_ID":"2020-062AY","LAUNCH_DATE":"2020-09-03","FILE":"3368836","MEAN_MOTION_DOT":"0.00001612","TIME_SYSTEM":"UTC","NORAD_CAT_ID":"46371","ECCENTRICITY":"0.00018560","TLE_LINE2":"2 46371  53.0562  20.5891 0001856  54.9235 305.1928 15.06402122 86226","OBJECT_NAME":"STARLINK-1688","BSTAR":"0.00012709000000","DECAY_DATE":null,"OBJECT_TYPE":"PAYLOAD","CLASSIFICATION_TYPE":"U","CENTER_NAME":"EARTH","ARG_OF_PERICENTER":"54.9235","PERIAPSIS":"545.922","APOAPSIS":"548.492","TLE_LINE1":"1 46371U 20062AY  22080.87554742  .00001612  00000-0  12709-3 0  9997","SEMIMAJOR_AXIS":"6925.342","RCS_SIZE":"LARGE","COUNTRY_CODE":"US","EPOCH":"2022-03-21T21:00:47.297088","MEAN_MOTION":"15.06402122","RA_OF_ASC_NODE":"20.5891","REV_AT_EPOCH":"8622","ELEMENT_SET_NO":"999","MEAN_ELEMENT_THEORY":"SGP4","REF_FRAME":"TEME","INCLINATION":"53.0562"},{"CENTER_NAME":"EARTH","ARG_OF_PERICENTER":"55.6059","TLE_LINE1":"1 46372U 20062AZ  22080.61937251  .00001225  00000-0  10109-3 0  9992","APOAPSIS":"548.453","PERIAPSIS":"545.939","EPOCH":"2022-03-21T14:51:53.784864","RCS_SIZE":"LARGE","COUNTRY_CODE":"US","SEMIMAJOR_AXIS":"6925.331","RA_OF_ASC_NODE":"41.7373","MEAN_MOTION":"15.06405716","MEAN_ELEMENT_THEORY":"SGP4","REF_FRAME":"TEME","REV_AT_EPOCH":"8590","ELEMENT_SET_NO":"999","INCLINATION":"53.0556","PERIOD":"95.592","GP_ID":"199348532","MEAN_MOTION_DDOT":"0.0000000000000","MEAN_ANOMALY":"304.5102","OBJECT_ID":"2020-062AZ","LAUNCH_DATE":"2020-09-03","SITE":"AFETR","EPHEMERIS_TYPE":"0","FILE":"3368836","ECCENTRICITY":"0.00018150","NORAD_CAT_ID":"46372","TIME_SYSTEM":"UTC","MEAN_MOTION_DOT":"0.00001225","TLE_LINE2":"2 46372  53.0556  41.7373 0001815  55.6059 304.5102 15.06405716 85900","OBJECT_NAME":"STARLINK-1689","CLASSIFICATION_TYPE":"U","OBJECT_TYPE":"PAYLOAD","BSTAR":"0.00010109000000","DECAY_DATE":null},{"ARG_OF_PERICENTER":"105.2120","CENTER_NAME":"EARTH","TLE_LINE1":"1 46374U 20062BB  22080.89858567  .00000241  00000-0  35071-4 0  9999","APOAPSIS":"548.083","PERIAPSIS":"546.329","MEAN_MOTION":"15.06402423","RA_OF_ASC_NODE":"330.5038","EPOCH":"2022-03-21T21:33:57.801888","RCS_SIZE":"LARGE","COUNTRY_CODE":"US","SEMIMAJOR_AXIS":"6925.341","INCLINATION":"53.0565","MEAN_ELEMENT_THEORY":"SGP4","REF_FRAME":"TEME","ELEMENT_SET_NO":"999","REV_AT_EPOCH":"8692","LAUNCH_DATE":"2020-09-03","OBJECT_ID":"2020-062BB","SITE":"AFETR","EPHEMERIS_TYPE":"0","PERIOD":"95.592","GP_ID":"199348284","MEAN_MOTION_DDOT":"0.0000000000000","MEAN_ANOMALY":"254.9009","FILE":"3368836","TLE_LINE2":"2 46374  53.0565 330.5038 0001266 105.2120 254.9009 15.06402423 86929","ECCENTRICITY":"0.00012660","NORAD_CAT_ID":"46374","TIME_SYSTEM":"UTC","MEAN_MOTION_DOT":"0.00000241","CLASSIFICATION_TYPE":"U","OBJECT_TYPE":"PAYLOAD","DECAY_DATE":null,"BSTAR":"0.00003507100000","OBJECT_NAME":"STARLINK-1711"},{"ELEMENT_SET_NO":"999","REV_AT_EPOCH":"8657","MEAN_ELEMENT_THEORY":"SGP4","REF_FRAME":"TEME","INCLINATION":"53.0550","RCS_SIZE":"LARGE","COUNTRY_CODE":"US","SEMIMAJOR_AXIS":"6925.354","EPOCH":"2022-03-21T21:54:32.328288","MEAN_MOTION":"15.06398377","RA_OF_ASC_NODE":"355.4211","APOAPSIS":"548.536","PERIAPSIS":"545.901","TLE_LINE1":"1 46375U 20062BC  22080.91287417  .00001334  00000-0  10845-3 0  9998","CENTER_NAME":"EARTH","ARG_OF_PERICENTER":"53.7282","OBJECT_NAME":"STARLINK-1724","OBJECT_TYPE":"PAYLOAD","BSTAR":"0.00010845000000","DECAY_DATE":null,"CLASSIFICATION_TYPE":"U","TIME_SYSTEM":"UTC","MEAN_MOTION_DOT":"0.00001334","ECCENTRICITY":"0.00019030","NORAD_CAT_ID":"46375","TLE_LINE2":"2 46375  53.0550 355.4211 0001903  53.7282 306.3882 15.06398377 86571","FILE":"3368836","MEAN_MOTION_DDOT":"0.0000000000000","MEAN_ANOMALY":"306.3882","PERIOD":"95.592","GP_ID":"199347531","SITE":"AFETR","EPHEMERIS_TYPE":"0","LAUNCH_DATE":"2020-09-03","OBJECT_ID":"2020-062BC"},{"FILE":"3368836","OBJECT_ID":"2020-062BD","LAUNCH_DATE":"2020-09-03","SITE":"AFETR","EPHEMERIS_TYPE":"0","PERIOD":"95.592","GP_ID":"199347781","MEAN_MOTION_DDOT":"0.0000000000000","MEAN_ANOMALY":"284.3608","CLASSIFICATION_TYPE":"U","OBJECT_TYPE":"PAYLOAD","BSTAR":"0.00004113600000","DECAY_DATE":null,"OBJECT_NAME":"STARLINK-1742","TLE_LINE2":"2 46376  53.0574 355.3648 0001833  75.7585 284.3608 15.06406777 86578","ECCENTRICITY":"0.00018330","NORAD_CAT_ID":"46376","TIME_SYSTEM":"UTC","MEAN_MOTION_DOT":"0.00000331","TLE_LINE1":"1 46376U 20062BD  22080.92761201  .00000331  00000-0  41136-4 0  9992","APOAPSIS":"548.462","PERIAPSIS":"545.923","ARG_OF_PERICENTER":"75.7585","CENTER_NAME":"EARTH","INCLINATION":"53.0574","MEAN_ELEMENT_THEORY":"SGP4","REF_FRAME":"TEME","REV_AT_EPOCH":"8657","ELEMENT_SET_NO":"999","RA_OF_ASC_NODE":"355.3648","MEAN_MOTION":"15.06406777","EPOCH":"2022-03-21T22:15:45.677664","RCS_SIZE":"LARGE","COUNTRY_CODE":"US","SEMIMAJOR_AXIS":"6925.328"},{"INCLINATION":"53.0564","ELEMENT_SET_NO":"999","REV_AT_EPOCH":"8621","REF_FRAME":"TEME","MEAN_ELEMENT_THEORY":"SGP4","RA_OF_ASC_NODE":"20.8118","MEAN_MOTION":"15.06406209","SEMIMAJOR_AXIS":"6925.330","RCS_SIZE":"LARGE","COUNTRY_CODE":"US","EPOCH":"2022-03-21T19:51:47.104992","PERIAPSIS":"546.041","APOAPSIS":"548.348","TLE_LINE1":"1 46380U 20062BH  22080.82762853  .00001895  00000-0  14608-3 0  9999","ARG_OF_PERICENTER":"61.3959","CENTER_NAME":"EARTH","DECAY_DATE":null,"BSTAR":"0.00014608000000","OBJECT_TYPE":"PAYLOAD","CLASSIFICATION_TYPE":"U","OBJECT_NAME":"STARLINK-1758","TLE_LINE2":"2 46380  53.0564  20.8118 0001665  61.3959 298.7197 15.06406209 86210","MEAN_MOTION_DOT":"0.00001895","TIME_SYSTEM":"UTC","NORAD_CAT_ID":"46380","ECCENTRICITY":"0.00016650","FILE":"3368836","EPHEMERIS_TYPE":"0","SITE":"AFETR","LAUNCH_DATE":"2020-09-03","OBJECT_ID":"2020-062BH","MEAN_ANOMALY":"298.7197","MEAN_MOTION_DDOT":"0.0000000000000","GP_ID":"199348034","PERIOD":"95.592"},{"MEAN_ANOMALY":"302.8318","MEAN_MOTION_DDOT":"0.0000000000000","GP_ID":"199348783","PERIOD":"95.592","EPHEMERIS_TYPE":"0","SITE":"AFETR","OBJECT_ID":"2020-062BK","LAUNCH_DATE":"2020-09-03","FILE":"3368836","MEAN_MOTION_DOT":"0.00000271","TIME_SYSTEM":"UTC","NORAD_CAT_ID":"46382","ECCENTRICITY":"0.00017060","TLE_LINE2":"2 46382  53.0553 355.3125 0001706  57.2835 302.8318 15.06407405 86588","OBJECT_NAME":"STARLINK-1769","DECAY_DATE":null,"BSTAR":"0.00003705900000","OBJECT_TYPE":"PAYLOAD","CLASSIFICATION_TYPE":"U","CENTER_NAME":"EARTH","ARG_OF_PERICENTER":"57.2835","PERIAPSIS":"546.009","APOAPSIS":"548.372","TLE_LINE1":"1 46382U 20062BK  22080.94235812  .00000271  00000-0  37059-4 0  9997","SEMIMAJOR_AXIS":"6925.326","COUNTRY_CODE":"US","RCS_SIZE":"LARGE","EPOCH":"2022-03-21T22:36:59.741568","MEAN_MOTION":"15.06407405","RA_OF_ASC_NODE":"355.3125","REV_AT_EPOCH":"8658","ELEMENT_SET_NO":"999","MEAN_ELEMENT_THEORY":"SGP4","REF_FRAME":"TEME","INCLINATION":"53.0553"},{"INCLINATION":"53.0556","REF_FRAME":"TEME","MEAN_ELEMENT_THEORY":"SGP4","ELEMENT_SET_NO":"999","REV_AT_EPOCH":"8593","MEAN_MOTION":"15.06401844","RA_OF_ASC_NODE":"40.6600","EPOCH":"2022-03-21T20:42:12.852864","SEMIMAJOR_AXIS":"6925.343","COUNTRY_CODE":"US","RCS_SIZE":"LARGE","TLE_LINE1":"1 46383U 20062BL  22080.86264876  .00001216  00000-0  10054-3 0  9996","PERIAPSIS":"545.965","APOAPSIS":"548.450","ARG_OF_PERICENTER":"64.4515","CENTER_NAME":"EARTH","CLASSIFICATION_TYPE":"U","DECAY_DATE":null,"BSTAR":"0.00010054000000","OBJECT_TYPE":"PAYLOAD","OBJECT_NAME":"STARLINK-1770","TLE_LINE2":"2 46383  53.0556  40.6600 0001794  64.4515 295.6659 15.06401844 85932","NORAD_CAT_ID":"46383","ECCENTRICITY":"0.00017940","MEAN_MOTION_DOT":"0.00001216","TIME_SYSTEM":"UTC","FILE":"3368836","LAUNCH_DATE":"2020-09-03","OBJECT_ID":"2020-062BL","EPHEMERIS_TYPE":"0","SITE":"AFETR","GP_ID":"199347033","PERIOD":"95.592","MEAN_ANOMALY":"295.6659","MEAN_MOTION_DDOT":"0.0000000000000"}];
